IRIDIUM 7 [-]           
1 24793U 97020B   23355.59449585  .00000499  00000+0  16831-3 0  9993
2 24793  86.3963  44.5956 0002399  94.9920 265.1550 14.35014043393915
IRIDIUM 5 [-]           
1 24795U 97020D   23355.44559885  .00006898  00000+0  68943-3 0  9994
2 24795  86.3930 332.4345 0123540 276.5718  82.1455 14.85716206404512
IRIDIUM 4 [-]           
1 24796U 97020E   23355.57599519  .00000550  00000+0  18292-3 0  9998
2 24796  86.3959  41.8423 0002164  96.9408 263.2035 14.35923021394435
IRIDIUM 914 [-]         
1 24836U 97030A   23355.59651025  .00000631  00000+0  19516-3 0  9997
2 24836  86.3937  52.0263 0001992 145.4941 214.6387 14.39752399528882
IRIDIUM 16 [-]          
1 24841U 97030F   23355.58869894  .00000673  00000+0  21767-3 0  9994
2 24841  86.4035  73.5556 0003937  72.5605 287.6023 14.37638624388871
IRIDIUM 911 [-]         
1 24842U 97030G   23355.60822262  .00000918  00000+0  25075-3 0  9994
2 24842  86.4461  72.8231 0016449 107.0234 253.2772 14.46199246396489
IRIDIUM 17 [-]          
1 24870U 97034B   23355.37543029  .00000789  00000+0  26125-3 0  9997
2 24870  86.3961 103.3039 0002436  50.4008 309.7404 14.36730903385477
IRIDIUM 920 [-]         
1 24871U 97034C   23355.35954492  .00000762  00000+0  23349-3 0  9992
2 24871  86.3976  83.8002 0013634  78.2720 282.0008 14.40454856388265
